[
  {
    "CCSDS_CDM_VERS": "1.0",
    "CREATION_DATE": "2026-04-14T19:45:00.000",
    "ORIGINATOR": "OOCAA_TEST",
    "MESSAGE_ID": "highpc_test_002",
    "TCA": "2026-04-15T00:00:00.000",
    "MISS_DISTANCE": "1.0",
    "COLLISION_PROBABILITY": "0.0",
    "COLLISION_PROBABILITY_METHOD": "TEST_INPUT",
    "HARD_BODY_RADIUS": "50.0",

    "SAT1_OBJECT": "OBJECT1",
    "SAT1_OBJECT_DESIGNATOR": "90011",
    "SAT1_CATALOG_NAME": "SATCAT",
    "SAT1_OBJECT_NAME": "HIGHPC-SAT-1",
    "SAT1_INTERNATIONAL_DESIGNATOR": "2026-001A",
    "SAT1_OBJECT_TYPE": "PAYLOAD",
    "SAT1_OPERATOR_ORGANIZATION": "TEST",
    "SAT1_COVARIANCE_METHOD": "CALCULATED",
    "SAT1_MANEUVERABLE": "YES",
    "SAT1_REFERENCE_FRAME": "ITRF",
    "SAT1_X": "7000000.0",
    "SAT1_Y": "0.0",
    "SAT1_Z": "0.0",
    "SAT1_X_DOT": "0.0",
    "SAT1_Y_DOT": "7500.0",
    "SAT1_Z_DOT": "0.0",

    "SAT1_CR_R": "2500.0",
    "SAT1_CT_R": "0.0",
    "SAT1_CT_T": "2500.0",
    "SAT1_CN_R": "0.0",
    "SAT1_CN_T": "0.0",
    "SAT1_CN_N": "2500.0",
    "SAT1_CRDOT_R": "0.0",
    "SAT1_CRDOT_T": "0.0",
    "SAT1_CRDOT_N": "0.0",
    "SAT1_CRDOT_RDOT": "1.0",
    "SAT1_CTDOT_R": "0.0",
    "SAT1_CTDOT_T": "0.0",
    "SAT1_CTDOT_N": "0.0",
    "SAT1_CTDOT_RDOT": "0.0",
    "SAT1_CTDOT_TDOT": "1.0",
    "SAT1_CNDOT_R": "0.0",
    "SAT1_CNDOT_T": "0.0",
    "SAT1_CNDOT_N": "0.0",
    "SAT1_CNDOT_RDOT": "0.0",
    "SAT1_CNDOT_TDOT": "0.0",
    "SAT1_CNDOT_NDOT": "1.0",

    "SAT2_OBJECT": "OBJECT1",
    "SAT2_OBJECT_DESIGNATOR": "90012",
    "SAT2_CATALOG_NAME": "SATCAT",
    "SAT2_OBJECT_NAME": "HIGHPC-SAT-2",
    "SAT2_INTERNATIONAL_DESIGNATOR": "2026-001B",
    "SAT2_OBJECT_TYPE": "PAYLOAD",
    "SAT2_EPHEMERIS_NAME": "NONE",
    "SAT2_COVARIANCE_METHOD": "CALCULATED",
    "SAT2_MANEUVERABLE": "YES",
    "SAT2_REFERENCE_FRAME": "ITRF",
    "SAT2_X": "7000001.0",
    "SAT2_Y": "0.0",
    "SAT2_Z": "0.0",
    "SAT2_X_DOT": "0.0",
    "SAT2_Y_DOT": "7500.2",
    "SAT2_Z_DOT": "0.1",

    "SAT2_CR_R": "2500.0",
    "SAT2_CT_R": "0.0",
    "SAT2_CT_T": "2500.0",
    "SAT2_CN_R": "0.0",
    "SAT2_CN_T": "0.0",
    "SAT2_CN_N": "2500.0",
    "SAT2_CRDOT_R": "0.0",
    "SAT2_CRDOT_T": "0.0",
    "SAT2_CRDOT_N": "0.0",
    "SAT2_CRDOT_RDOT": "1.0",
    "SAT2_CTDOT_R": "0.0",
    "SAT2_CTDOT_T": "0.0",
    "SAT2_CTDOT_N": "0.0",
    "SAT2_CTDOT_RDOT": "0.0",
    "SAT2_CTDOT_TDOT": "1.0",
    "SAT2_CNDOT_R": "0.0",
    "SAT2_CNDOT_T": "0.0",
    "SAT2_CNDOT_N": "0.0",
    "SAT2_CNDOT_RDOT": "0.0",
    "SAT2_CNDOT_TDOT": "0.0",
    "SAT2_CNDOT_NDOT": "1.0",

    "SAT2_OPERATOR_ORGANIZATION": "TEST"
  }
]
